start=new Date('2022-08-22T00:00:00.000Z').valueOf();
sats=[{"RCS_SIZE":"LARGE","DECAY_DATE":null,"APOAPSIS":"548.323","TLE_LINE1":"1 48300U 21036AA  22233.77615744  .00000808  00000-0  73187-4 0  9996","MEAN_ANOMALY":"289.2934","PERIOD":"95.593","OBJECT_ID":"2021-036AA","FILE":"3542671","OBJECT_NAME":"STARLINK-2538","CLASSIFICATION_TYPE":"U","MEAN_MOTION_DOT":"0.00000808","LAUNCH_DATE":"2021-04-29","ECCENTRICITY":"0.00015230","SEMIMAJOR_AXIS":"6925.404","GP_ID":"210690616","INCLINATION":"53.0536","CENTER_NAME":"EARTH","REV_AT_EPOCH":"7285","MEAN_ELEMENT_THEORY":"SGP4","ELEMENT_SET_NO":"999","REF_FRAME":"TEME","EPHEMERIS_TYPE":"0","TIME_SYSTEM":"UTC","ARG_OF_PERICENTER":"70.8220","PERIAPSIS":"546.214","NORAD_CAT_ID":"48300","TLE_LINE2":"2 48300  53.0536 149.1949 0001523  70.8220 289.2934 15.06382072 72859","EPOCH":"2022-08-21T18:37:40.002816","BSTAR":"0.00007318700000","OBJECT_TYPE":"PAYLOAD","SITE":"AFETR","MEAN_MOTION_DDOT":"0.0000000000000","RA_OF_ASC_NODE":"149.1949","MEAN_MOTION":"15.06382072","COUNTRY_CODE":"US"},{"TLE_LINE1":"1 48301U 21036AB  22233.17534932 -.00002471  00000-0 -14710-3 0  9996","MEAN_ANOMALY":"277.5979","APOAPSIS":"548.181","DECAY_DATE":null,"RCS_SIZE":"LARGE","OBJECT_NAME":"STARLINK-2537","CLASSIFICATION_TYPE":"U","OBJECT_ID":"2021-036AB","FILE":"3542305","PERIOD":"95.593","SEMIMAJOR_AXIS":"6925.379","GP_ID":"210656071","ECCENTRICITY":"0.00013530","LAUNCH_DATE":"2021-04-29","MEAN_MOTION_DOT":"-0.00002471","ELEMENT_SET_NO":"999","REV_AT_EPOCH":"7275","MEAN_ELEMENT_THEORY":"SGP4","CENTER_NAME":"EARTH","INCLINATION":"53.0545","EPHEMERIS_TYPE":"0","REF_FRAME":"TEME","PERIAPSIS":"546.307","ARG_OF_PERICENTER":"82.5163","TIME_SYSTEM":"UTC","BSTAR":"-0.00014710000000","OBJECT_TYPE":"PAYLOAD","EPOCH":"2022-08-21T04:12:30.181248","TLE_LINE2":"2 48301  53.0545 151.9045 0001353  82.5163 277.5979 15.06390092 72754","NORAD_CAT_ID":"48301","COUNTRY_CODE":"US","MEAN_MOTION":"15.06390092","RA_OF_ASC_NODE":"151.9045","SITE":"AFETR","MEAN_MOTION_DDOT":"0.0000000000000"},{"OBJECT_NAME":"STARLINK-2556","CLASSIFICATION_TYPE":"U","OBJECT_ID":"2021-036AC","FILE":"3542671","PERIOD":"95.593","MEAN_ANOMALY":"286.2975","TLE_LINE1":"1 48302U 21036AC  22233.83512681  .00001824  00000-0  14141-3 0  9994","APOAPSIS":"548.382","DECAY_DATE":null,"RCS_SIZE":"LARGE","ELEMENT_SET_NO":"999","REV_AT_EPOCH":"7285","CENTER_NAME":"EARTH","MEAN_ELEMENT_THEORY":"SGP4","INCLINATION":"53.0546","GP_ID":"210691115","SEMIMAJOR_AXIS":"6925.401","ECCENTRICITY":"0.00016110","LAUNCH_DATE":"2021-04-29","MEAN_MOTION_DOT":"0.00001824","PERIAPSIS":"546.151","ARG_OF_PERICENTER":"73.8191","TIME_SYSTEM":"UTC","EPHEMERIS_TYPE":"0","REF_FRAME":"TEME","COUNTRY_CODE":"US","MEAN_MOTION":"15.06382754","RA_OF_ASC_NODE":"148.9288","MEAN_MOTION_DDOT":"0.0000000000000","SITE":"AFETR","BSTAR":"0.00014141000000","OBJECT_TYPE":"PAYLOAD","EPOCH":"2022-08-21T20:02:34.956384","TLE_LINE2":"2 48302  53.0546 148.9288 0001611  73.8191 286.2975 15.06382754 72852","NORAD_CAT_ID":"48302"},{"EPOCH":"2022-08-21T18:20:22.065792","OBJECT_TYPE":"PAYLOAD","BSTAR":"0.00020574000000","NORAD_CAT_ID":"48303","TLE_LINE2":"2 48303  53.0548 149.2499 0001574  73.3815 286.7346 15.06387960 72849","MEAN_MOTION":"15.06387960","COUNTRY_CODE":"US","SITE":"AFETR","MEAN_MOTION_DDOT":"0.0000000000000","RA_OF_ASC_NODE":"149.2499","EPHEMERIS_TYPE":"0","REF_FRAME":"TEME","ARG_OF_PERICENTER":"73.3815","PERIAPSIS":"546.160","TIME_SYSTEM":"UTC","ECCENTRICITY":"0.00015740","SEMIMAJOR_AXIS":"6925.385","GP_ID":"210691368","MEAN_MOTION_DOT":"0.00002783","LAUNCH_DATE":"2021-04-29","CENTER_NAME":"EARTH","REV_AT_EPOCH":"7284","MEAN_ELEMENT_THEORY":"SGP4","ELEMENT_SET_NO":"999","INCLINATION":"53.0548","TLE_LINE1":"1 48303U 21036AD  22233.76414428  .00002783  00000-0  20574-3 0  9999","APOAPSIS":"548.341","MEAN_ANOMALY":"286.7346","RCS_SIZE":"LARGE","DECAY_DATE":null,"FILE":"3542671","OBJECT_ID":"2021-036AD","CLASSIFICATION_TYPE":"U","OBJECT_NAME":"STARLINK-2530","PERIOD":"95.593"},{"OBJECT_TYPE":"PAYLOAD","BSTAR":"0.00013895000000","EPOCH":"2022-08-21T18:16:25.679712","TLE_LINE2":"2 48304  53.0534 149.2665 0001598  73.0314 287.0850 15.06381598 72842","NORAD_CAT_ID":"48304","COUNTRY_CODE":"US","MEAN_MOTION":"15.06381598","RA_OF_ASC_NODE":"149.2665","SITE":"AFETR","MEAN_MOTION_DDOT":"0.0000000000000","EPHEMERIS_TYPE":"0","REF_FRAME":"TEME","PERIAPSIS":"546.163","ARG_OF_PERICENTER":"73.0314","TIME_SYSTEM":"UTC","GP_ID":"210690117","SEMIMAJOR_AXIS":"6925.405","ECCENTRICITY":"0.00015980","LAUNCH_DATE":"2021-04-29","MEAN_MOTION_DOT":"0.00001788","ELEMENT_SET_NO":"999","REV_AT_EPOCH":"7284","CENTER_NAME":"EARTH","MEAN_ELEMENT_THEORY":"SGP4","INCLINATION":"53.0534","APOAPSIS":"548.377","TLE_LINE1":"1 48304U 21036AE  22233.76140833  .00001788  00000-0  13895-3 0  9998","MEAN_ANOMALY":"287.0850","DECAY_DATE":null,"RCS_SIZE":"LARGE","CLASSIFICATION_TYPE":"U","OBJECT_NAME":"STARLINK-2524","FILE":"3542671","OBJECT_ID":"2021-036AE","PERIOD":"95.593"},{"RA_OF_ASC_NODE":"149.2894","SITE":"AFETR","MEAN_MOTION_DDOT":"0.0000000000000","COUNTRY_CODE":"US","MEAN_MOTION":"15.06411049","TLE_LINE2":"2 48305  53.0550 149.2894 0001430  75.2509 284.8638 15.06411049 72844","NORAD_CAT_ID":"48305","OBJECT_TYPE":"PAYLOAD","BSTAR":"-0.00019378000000","EPOCH":"2022-08-21T18:09:44.961696","TIME_SYSTEM":"UTC","PERIAPSIS":"546.189","ARG_OF_PERICENTER":"75.2509","REF_FRAME":"TEME","EPHEMERIS_TYPE":"0","INCLINATION":"53.0550","ELEMENT_SET_NO":"999","CENTER_NAME":"EARTH","REV_AT_EPOCH":"7284","MEAN_ELEMENT_THEORY":"SGP4","LAUNCH_DATE":"2021-04-29","MEAN_MOTION_DOT":"-0.00003167","GP_ID":"210690367","SEMIMAJOR_AXIS":"6925.315","ECCENTRICITY":"0.00014300","PERIOD":"95.591","CLASSIFICATION_TYPE":"U","OBJECT_NAME":"STARLINK-2519","FILE":"3542671","OBJECT_ID":"2021-036AF","DECAY_DATE":null,"RCS_SIZE":"LARGE","TLE_LINE1":"1 48305U 21036AF  22233.75677039 -.00003167  00000-0 -19378-3 0  9998","APOAPSIS":"548.170","MEAN_ANOMALY":"284.8638"},{"PERIOD":"95.593","OBJECT_ID":"2021-036AG","FILE":"3542671","OBJECT_NAME":"STARLINK-2523","CLASSIFICATION_TYPE":"U","RCS_SIZE":"LARGE","DECAY_DATE":null,"TLE_LINE1":"1 48306U 21036AG  22233.75404842  .00005813  00000-0  40897-3 0  9997","MEAN_ANOMALY":"292.7147","APOAPSIS":"548.306","INCLINATION":"53.0532","REV_AT_EPOCH":"7284","MEAN_ELEMENT_THEORY":"SGP4","CENTER_NAME":"EARTH","ELEMENT_SET_NO":"999","MEAN_MOTION_DOT":"0.00005813","LAUNCH_DATE":"2021-04-29","ECCENTRICITY":"0.00015190","SEMIMAJOR_AXIS":"6925.389","GP_ID":"210691615","TIME_SYSTEM":"UTC","ARG_OF_PERICENTER":"67.4003","PERIAPSIS":"546.202","REF_FRAME":"TEME","EPHEMERIS_TYPE":"0","MEAN_MOTION_DDOT":"0.0000000000000","SITE":"AFETR","RA_OF_ASC_NODE":"149.3009","MEAN_MOTION":"15.06386780","COUNTRY_CODE":"US","NORAD_CAT_ID":"48306","TLE_LINE2":"2 48306  53.0532 149.3009 0001519  67.4003 292.7147 15.06386780 72840","EPOCH":"2022-08-21T18:05:49.783488","BSTAR":"0.00040897000000","OBJECT_TYPE":"PAYLOAD"},{"INCLINATION":"53.0543","ELEMENT_SET_NO":"999","REV_AT_EPOCH":"7286","MEAN_ELEMENT_THEORY":"SGP4","CENTER_NAME":"EARTH","LAUNCH_DATE":"2021-04-29","MEAN_MOTION_DOT":"0.00002657","GP_ID":"210691868","SEMIMAJOR_AXIS":"6925.393","ECCENTRICITY":"0.00015160","PERIOD":"95.593","OBJECT_NAME":"STARLINK-2528","CLASSIFICATION_TYPE":"U","OBJECT_ID":"2021-036AH","FILE":"3542671","DECAY_DATE":null,"RCS_SIZE":"LARGE","APOAPSIS":"548.307","TLE_LINE1":"1 48307U 21036AH  22233.88304592  .00002657  00000-0  19728-3 0  9995","MEAN_ANOMALY":"284.1645","RA_OF_ASC_NODE":"148.7302","SITE":"AFETR","MEAN_MOTION_DDOT":"0.0000000000000","COUNTRY_CODE":"US","MEAN_MOTION":"15.06385638","TLE_LINE2":"2 48307  53.0543 148.7302 0001516  75.9512 284.1645 15.06385638 72869","NORAD_CAT_ID":"48307","BSTAR":"0.00019728000000","OBJECT_TYPE":"PAYLOAD","EPOCH":"2022-08-21T21:11:35.167488","TIME_SYSTEM":"UTC","PERIAPSIS":"546.208","ARG_OF_PERICENTER":"75.9512","REF_FRAME":"TEME","EPHEMERIS_TYPE":"0"},{"ARG_OF_PERICENTER":"61.3234","PERIAPSIS":"546.093","TIME_SYSTEM":"UTC","EPHEMERIS_TYPE":"0","REF_FRAME":"TEME","MEAN_MOTION":"15.06388166","COUNTRY_CODE":"US","SITE":"AFETR","MEAN_MOTION_DDOT":"0.0000000000000","RA_OF_ASC_NODE":"149.0347","EPOCH":"2022-08-21T19:30:45.044640","BSTAR":"0.00038953000000","OBJECT_TYPE":"PAYLOAD","NORAD_CAT_ID":"48308","TLE_LINE2":"2 48308  53.0534 149.0347 0001670  61.3234 298.7923 15.06388166 72852","OBJECT_ID":"2021-036AJ","FILE":"3542671","OBJECT_NAME":"STARLINK-2532","CLASSIFICATION_TYPE":"U","PERIOD":"95.593","TLE_LINE1":"1 48308U 21036AJ  22233.81302135  .00005523  00000-0  38953-3 0  9996","APOAPSIS":"548.406","MEAN_ANOMALY":"298.7923","RCS_SIZE":"LARGE","DECAY_DATE":null,"REV_AT_EPOCH":"7285","CENTER_NAME":"EARTH","MEAN_ELEMENT_THEORY":"SGP4","ELEMENT_SET_NO":"999","INCLINATION":"53.0534","ECCENTRICITY":"0.00016700","GP_ID":"210690617","SEMIMAJOR_AXIS":"6925.385","MEAN_MOTION_DOT":"0.00005523","LAUNCH_DATE":"2021-04-29"},{"CLASSIFICATION_TYPE":"U","OBJECT_NAME":"STARLINK-2517","FILE":"3542671","OBJECT_ID":"2021-036AK","PERIOD":"95.593","TLE_LINE1":"1 48309U 21036AK  22233.87568255  .00001520  00000-0  12100-3 0  9999","APOAPSIS":"548.329","MEAN_ANOMALY":"282.5716","DECAY_DATE":null,"RCS_SIZE":"LARGE","ELEMENT_SET_NO":"999","CENTER_NAME":"EARTH","REV_AT_EPOCH":"7286","MEAN_ELEMENT_THEORY":"SGP4","INCLINATION":"53.0555","SEMIMAJOR_AXIS":"6925.404","GP_ID":"210690867","ECCENTRICITY":"0.00015300","LAUNCH_DATE":"2021-04-29","MEAN_MOTION_DOT":"0.00001520","PERIAPSIS":"546.209","ARG_OF_PERICENTER":"77.5444","TIME_SYSTEM":"UTC","EPHEMERIS_TYPE":"0","REF_FRAME":"TEME","COUNTRY_CODE":"US","MEAN_MOTION":"15.06381915","RA_OF_ASC_NODE":"148.7685","SITE":"AFETR","MEAN_MOTION_DDOT":"0.0000000000000","OBJECT_TYPE":"PAYLOAD","BSTAR":"0.00012100000000","EPOCH":"2022-08-21T21:00:58.972320","TLE_LINE2":"2 48309  53.0555 148.7685 0001530  77.5444 282.5716 15.06381915 72861","NORAD_CAT_ID":"48309"}];
